STARLINK-35439          
1 66431U 25259K   25330.91673611 -.01863934  00000+0 -15194-1 0  9996
2 66431  43.0000 140.3625 0001311 270.3219 281.3562 15.73028115  3733
STARLINK-35446          
1 66432U 25259L   25330.91673611 -.01865049  00000+0 -15204-1 0  9998
2 66432  42.9999 140.3572 0001368 272.8653 280.7302 15.73028260  3737
STARLINK-35457          
1 66433U 25259M   25330.91673611 -.01863960  00000+0 -15196-1 0  9999
2 66433  42.9997 140.3539 0001273 280.5281 274.9854 15.73026466  3730
STARLINK-35389          
1 66434U 25259N   25330.91673611 -.01856968  00000+0 -15136-1 0  9994
2 66434  42.9998 140.3489 0001436 276.4501 280.9936 15.73014921  3737
STARLINK-35502          
1 66435U 25259P   25330.91673611 -.01865150  00000+0 -15205-1 0  9995
2 66435  42.9999 140.3449 0001392 272.0113 287.3350 15.73028424  3731
STARLINK-35501          
1 66436U 25259Q   25330.91673611 -.01864102  00000+0 -15196-1 0  9991
2 66436  42.9998 140.3346 0001348 276.3817 286.8004 15.73026513  3733
STARLINK-35474          
1 66437U 25259R   25330.91673611 -.01864080  00000+0 -15195-1 0  9996
2 66437  42.9998 140.3297 0001446 277.9282 287.1696 15.73026838  3732
STARLINK-34681          
1 66438U 25259S   25330.91673611 -.01863621  00000+0 -15195-1 0  9997
2 66438  42.9999 140.3250 0001355 273.2470 293.7778 15.73021632  3629
STARLINK-35327          
1 66439U 25259T   25330.91673611 -.01864218  00000+0 -15196-1 0  9992
2 66439  42.9999 140.3411 0001401 272.4759 288.7880 15.73027536  3731
STARLINK-35405          
1 66440U 25259U   25330.91673611 -.01864514  00000+0 -15201-1 0  9990
2 66440  42.9999 140.3208 0001479 278.4554 290.4833 15.73023072  3730
STARLINK-35426          
1 66441U 25259V   25330.91673611 -.01867080  00000+0 -15225-1 0  9998
2 66441  42.9999 140.3154 0001392 277.1879 293.6679 15.73024854  3733
STARLINK-34724          
1 66442U 25259W   25330.91673611 -.01852076  00000+0 -15091-1 0  9999
2 66442  42.9999 140.3108 0001434 280.9633 291.8128 15.73014237  3733
