CCSDS_OMM_VERS = 2.0
CREATION_DATE  = 
ORIGINATOR     = 

OBJECT_NAME    = STARLINK-35439
OBJECT_ID      = 2025-259K
CENTER_NAME    = EARTH
REF_FRAME      = TEME
TIME_SYSTEM    = UTC
MEAN_ELEMENT_THEORY = SGP/SGP4

EPOCH          = 2025-11-26T22:00:05.999904
MEAN_MOTION    = 15.73028115
ECCENTRICITY   = .00013115
INCLINATION    = 43.0000
RA_OF_ASC_NODE = 140.3625
ARG_OF_PERICENTER = 270.3219
MEAN_ANOMALY   = 281.3562

EPHEMERIS_TYPE = 0
CLASSIFICATION_TYPE = U
NORAD_CAT_ID   = 66431
ELEMENT_SET_NO = 999
REV_AT_EPOCH   = 373
BSTAR          = -.15193994E-1
MEAN_MOTION_DOT = -.1863934E-1
MEAN_MOTION_DDOT = 0

CCSDS_OMM_VERS = 2.0
CREATION_DATE  = 
ORIGINATOR     = 

OBJECT_NAME    = STARLINK-35446
OBJECT_ID      = 2025-259L
CENTER_NAME    = EARTH
REF_FRAME      = TEME
TIME_SYSTEM    = UTC
MEAN_ELEMENT_THEORY = SGP/SGP4

EPOCH          = 2025-11-26T22:00:05.999904
MEAN_MOTION    = 15.73028260
ECCENTRICITY   = .00013688
INCLINATION    = 42.9999
RA_OF_ASC_NODE = 140.3572
ARG_OF_PERICENTER = 272.8653
MEAN_ANOMALY   = 280.7302

EPHEMERIS_TYPE = 0
CLASSIFICATION_TYPE = U
NORAD_CAT_ID   = 66432
ELEMENT_SET_NO = 999
REV_AT_EPOCH   = 373
BSTAR          = -.15203919E-1
MEAN_MOTION_DOT = -.1865049E-1
MEAN_MOTION_DDOT = 0

CCSDS_OMM_VERS = 2.0
CREATION_DATE  = 
ORIGINATOR     = 

OBJECT_NAME    = STARLINK-35457
OBJECT_ID      = 2025-259M
CENTER_NAME    = EARTH
REF_FRAME      = TEME
TIME_SYSTEM    = UTC
MEAN_ELEMENT_THEORY = SGP/SGP4

EPOCH          = 2025-11-26T22:00:05.999904
MEAN_MOTION    = 15.73026466
ECCENTRICITY   = .00012731
INCLINATION    = 42.9997
RA_OF_ASC_NODE = 140.3539
ARG_OF_PERICENTER = 280.5281
MEAN_ANOMALY   = 274.9854

EPHEMERIS_TYPE = 0
CLASSIFICATION_TYPE = U
NORAD_CAT_ID   = 66433
ELEMENT_SET_NO = 999
REV_AT_EPOCH   = 373
BSTAR          = -.15195622E-1
MEAN_MOTION_DOT = -.186396E-1
MEAN_MOTION_DDOT = 0

CCSDS_OMM_VERS = 2.0
CREATION_DATE  = 
ORIGINATOR     = 

OBJECT_NAME    = STARLINK-35389
OBJECT_ID      = 2025-259N
CENTER_NAME    = EARTH
REF_FRAME      = TEME
TIME_SYSTEM    = UTC
MEAN_ELEMENT_THEORY = SGP/SGP4

EPOCH          = 2025-11-26T22:00:05.999904
MEAN_MOTION    = 15.73014921
ECCENTRICITY   = .00014368
INCLINATION    = 42.9998
RA_OF_ASC_NODE = 140.3489
ARG_OF_PERICENTER = 276.4501
MEAN_ANOMALY   = 280.9936

EPHEMERIS_TYPE = 0
CLASSIFICATION_TYPE = U
NORAD_CAT_ID   = 66434
ELEMENT_SET_NO = 999
REV_AT_EPOCH   = 373
BSTAR          = -.15136236E-1
MEAN_MOTION_DOT = -.1856968E-1
MEAN_MOTION_DDOT = 0

CCSDS_OMM_VERS = 2.0
CREATION_DATE  = 
ORIGINATOR     = 

OBJECT_NAME    = STARLINK-35502
OBJECT_ID      = 2025-259P
CENTER_NAME    = EARTH
REF_FRAME      = TEME
TIME_SYSTEM    = UTC
MEAN_ELEMENT_THEORY = SGP/SGP4

EPOCH          = 2025-11-26T22:00:05.999904
MEAN_MOTION    = 15.73028424
ECCENTRICITY   = .00013924
INCLINATION    = 42.9999
RA_OF_ASC_NODE = 140.3449
ARG_OF_PERICENTER = 272.0113
MEAN_ANOMALY   = 287.3350

EPHEMERIS_TYPE = 0
CLASSIFICATION_TYPE = U
NORAD_CAT_ID   = 66435
ELEMENT_SET_NO = 999
REV_AT_EPOCH   = 373
BSTAR          = -.15204568E-1
MEAN_MOTION_DOT = -.186515E-1
MEAN_MOTION_DDOT = 0

CCSDS_OMM_VERS = 2.0
CREATION_DATE  = 
ORIGINATOR     = 

OBJECT_NAME    = STARLINK-35501
OBJECT_ID      = 2025-259Q
CENTER_NAME    = EARTH
REF_FRAME      = TEME
TIME_SYSTEM    = UTC
MEAN_ELEMENT_THEORY = SGP/SGP4

EPOCH          = 2025-11-26T22:00:05.999904
MEAN_MOTION    = 15.73026513
ECCENTRICITY   = .00013483
INCLINATION    = 42.9998
RA_OF_ASC_NODE = 140.3346
ARG_OF_PERICENTER = 276.3817
MEAN_ANOMALY   = 286.8004

EPHEMERIS_TYPE = 0
CLASSIFICATION_TYPE = U
NORAD_CAT_ID   = 66436
ELEMENT_SET_NO = 999
REV_AT_EPOCH   = 373
BSTAR          = -.15196336E-1
MEAN_MOTION_DOT = -.1864102E-1
MEAN_MOTION_DDOT = 0

CCSDS_OMM_VERS = 2.0
CREATION_DATE  = 
ORIGINATOR     = 

OBJECT_NAME    = STARLINK-35474
OBJECT_ID      = 2025-259R
CENTER_NAME    = EARTH
REF_FRAME      = TEME
TIME_SYSTEM    = UTC
MEAN_ELEMENT_THEORY = SGP/SGP4

EPOCH          = 2025-11-26T22:00:05.999904
MEAN_MOTION    = 15.73026838
ECCENTRICITY   = .00014461
INCLINATION    = 42.9998
RA_OF_ASC_NODE = 140.3297
ARG_OF_PERICENTER = 277.9282
MEAN_ANOMALY   = 287.1696

EPHEMERIS_TYPE = 0
CLASSIFICATION_TYPE = U
NORAD_CAT_ID   = 66437
ELEMENT_SET_NO = 999
REV_AT_EPOCH   = 373
BSTAR          = -.15195131E-1
MEAN_MOTION_DOT = -.186408E-1
MEAN_MOTION_DDOT = 0

CCSDS_OMM_VERS = 2.0
CREATION_DATE  = 
ORIGINATOR     = 

OBJECT_NAME    = STARLINK-34681
OBJECT_ID      = 2025-259S
CENTER_NAME    = EARTH
REF_FRAME      = TEME
TIME_SYSTEM    = UTC
MEAN_ELEMENT_THEORY = SGP/SGP4

EPOCH          = 2025-11-26T22:00:05.999904
MEAN_MOTION    = 15.73021632
ECCENTRICITY   = .00013557
INCLINATION    = 42.9999
RA_OF_ASC_NODE = 140.3250
ARG_OF_PERICENTER = 273.2470
MEAN_ANOMALY   = 293.7778

EPHEMERIS_TYPE = 0
CLASSIFICATION_TYPE = U
NORAD_CAT_ID   = 66438
ELEMENT_SET_NO = 999
REV_AT_EPOCH   = 362
BSTAR          = -.15194971E-1
MEAN_MOTION_DOT = -.1863621E-1
MEAN_MOTION_DDOT = 0

CCSDS_OMM_VERS = 2.0
CREATION_DATE  = 
ORIGINATOR     = 

OBJECT_NAME    = STARLINK-35327
OBJECT_ID      = 2025-259T
CENTER_NAME    = EARTH
REF_FRAME      = TEME
TIME_SYSTEM    = UTC
MEAN_ELEMENT_THEORY = SGP/SGP4

EPOCH          = 2025-11-26T22:00:05.999904
MEAN_MOTION    = 15.73027536
ECCENTRICITY   = .00014011
INCLINATION    = 42.9999
RA_OF_ASC_NODE = 140.3411
ARG_OF_PERICENTER = 272.4759
MEAN_ANOMALY   = 288.7880

EPHEMERIS_TYPE = 0
CLASSIFICATION_TYPE = U
NORAD_CAT_ID   = 66439
ELEMENT_SET_NO = 999
REV_AT_EPOCH   = 373
BSTAR          = -.15196327E-1
MEAN_MOTION_DOT = -.1864218E-1
MEAN_MOTION_DDOT = 0

CCSDS_OMM_VERS = 2.0
CREATION_DATE  = 
ORIGINATOR     = 

OBJECT_NAME    = STARLINK-35405
OBJECT_ID      = 2025-259U
CENTER_NAME    = EARTH
REF_FRAME      = TEME
TIME_SYSTEM    = UTC
MEAN_ELEMENT_THEORY = SGP/SGP4

EPOCH          = 2025-11-26T22:00:05.999904
MEAN_MOTION    = 15.73023072
ECCENTRICITY   = .00014791
INCLINATION    = 42.9999
RA_OF_ASC_NODE = 140.3208
ARG_OF_PERICENTER = 278.4554
MEAN_ANOMALY   = 290.4833

EPHEMERIS_TYPE = 0
CLASSIFICATION_TYPE = U
NORAD_CAT_ID   = 66440
ELEMENT_SET_NO = 999
REV_AT_EPOCH   = 373
BSTAR          = -.15201422E-1
MEAN_MOTION_DOT = -.1864514E-1
MEAN_MOTION_DDOT = 0

CCSDS_OMM_VERS = 2.0
CREATION_DATE  = 
ORIGINATOR     = 

OBJECT_NAME    = STARLINK-35426
OBJECT_ID      = 2025-259V
CENTER_NAME    = EARTH
REF_FRAME      = TEME
TIME_SYSTEM    = UTC
MEAN_ELEMENT_THEORY = SGP/SGP4

EPOCH          = 2025-11-26T22:00:05.999904
MEAN_MOTION    = 15.73024854
ECCENTRICITY   = .00013921
INCLINATION    = 42.9999
RA_OF_ASC_NODE = 140.3154
ARG_OF_PERICENTER = 277.1879
MEAN_ANOMALY   = 293.6679

EPHEMERIS_TYPE = 0
CLASSIFICATION_TYPE = U
NORAD_CAT_ID   = 66441
ELEMENT_SET_NO = 999
REV_AT_EPOCH   = 373
BSTAR          = -.15225082E-1
MEAN_MOTION_DOT = -.186708E-1
MEAN_MOTION_DDOT = 0

CCSDS_OMM_VERS = 2.0
CREATION_DATE  = 
ORIGINATOR     = 

OBJECT_NAME    = STARLINK-34724
OBJECT_ID      = 2025-259W
CENTER_NAME    = EARTH
REF_FRAME      = TEME
TIME_SYSTEM    = UTC
MEAN_ELEMENT_THEORY = SGP/SGP4

EPOCH          = 2025-11-26T22:00:05.999904
MEAN_MOTION    = 15.73014237
ECCENTRICITY   = .00014342
INCLINATION    = 42.9999
RA_OF_ASC_NODE = 140.3108
ARG_OF_PERICENTER = 280.9633
MEAN_ANOMALY   = 291.8128

EPHEMERIS_TYPE = 0
CLASSIFICATION_TYPE = U
NORAD_CAT_ID   = 66442
ELEMENT_SET_NO = 999
REV_AT_EPOCH   = 373
BSTAR          = -.1509079E-1
MEAN_MOTION_DOT = -.1852076E-1
MEAN_MOTION_DDOT = 0

